[
    {
        "Altitude(m)": 604969.0889939897,
        "Argument of Periapsis(deg)": 0.0,
        "Eccentricity": 0.0,
        "Inclination(deg)": 60.0,
        "Latitude(deg)": -0.09254179033973654,
        "Longitude(deg)": 119.97752755514189,
        "Mean Anomaly(deg)": 0.0,
        "RAAN(deg)": 220.00000000000003,
        "Satellite Name": "Test1 968",
        "Satellite Number": 968,
        "Semi-Major Axis(m)": 6980739.136638005,
        "Time(s)": 0
    },
    {
        "Altitude(m)": 604900.0293203087,
        "Argument of Periapsis(deg)": 0.00010418945913296404,
        "Eccentricity": 0.0,
        "Inclination(deg)": 60.0,
        "Latitude(deg)": 0.4478839575386675,
        "Longitude(deg)": 120.24565087936926,
        "Mean Anomaly(deg)": 0.6201061454618275,
        "RAAN(deg)": 219.99957995086027,
        "Satellite Name": "Test1 968",
        "Satellite Number": 968,
        "Semi-Major Axis(m)": 6980739.136638005,
        "Time(s)": 10
    }
]